[{"OBJECT_NAME":"TISAT 1","OBJECT_ID":"2010-035E","EPOCH":"2026-03-09T18:10:07.877568","MEAN_MOTION":15.27628633,"ECCENTRICITY":0.00013432,"INCLINATION":98.0645,"RA_OF_ASC_NODE":6.8512,"ARG_OF_PERICENTER":159.303,"MEAN_ANOMALY":200.8262,"EPHEMERIS_TYPE":0,"CLASSIFICATION_TYPE":"U","NORAD_CAT_ID":36799,"ELEMENT_SET_NO":999,"REV_AT_EPOCH":85250,"BSTAR":0.00091004793,"MEAN_MOTION_DOT":0.00024554,"MEAN_MOTION_DDOT":0},{"OBJECT_NAME":"STARLINK-34844","OBJECT_ID":"2025-263B","EPOCH":"2026-03-09T02:37:31.688256","MEAN_MOTION":15.27577164,"ECCENTRICITY":0.00017896,"INCLINATION":43.0041,"RA_OF_ASC_NODE":353.6766,"ARG_OF_PERICENTER":255.4562,"MEAN_ANOMALY":104.6092,"EPHEMERIS_TYPE":0,"CLASSIFICATION_TYPE":"U","NORAD_CAT_ID":66486,"ELEMENT_SET_NO":999,"REV_AT_EPOCH":1876,"BSTAR":0.0016705604,"MEAN_MOTION_DOT":0.00045992,"MEAN_MOTION_DDOT":0}]
