TISAT 1                 
1 36799U 10035E   26068.75703561  .00024554  00000+0  91005-3 0  9996
2 36799  98.0645   6.8512 0001343 159.3030 200.8262 15.27628633852505
STARLINK-34844          
1 66486U 25263B   26068.10939454  .00045992  00000+0  16706-2 0  9995
2 66486  43.0041 353.6766 0001789 255.4562 104.6092 15.27577164 18763
